[
  {
    "CCSDS_OMM_VERS": "3.0",
    "COMMENT": "GENERATED VIA SPACE-TRACK.ORG API",
    "CREATION_DATE": "2024-02-22T03:17:24",
    "ORIGINATOR": "18 SPCS",
    "OBJECT_NAME": "QAEM 100 DEB",
    "OBJECT_ID": "2024-015C",
    "CENTER_NAME": "EARTH",
    "REF_FRAME": "TEME",
    "TIME_SYSTEM": "UTC",
    "MEAN_ELEMENT_THEORY": "SGP4",
    "EPOCH": "2024-02-20T04:33:35.401248",
    "MEAN_MOTION": "14.45833459",
    "ECCENTRICITY": "0.00103910",
    "INCLINATION": "64.4832",
    "RA_OF_ASC_NODE": "22.5250",
    "ARG_OF_PERICENTER": "319.5265",
    "MEAN_ANOMALY": "40.5048",
    "EPHEMERIS_TYPE": "0",
    "CLASSIFICATION_TYPE": "U",
    "NORAD_CAT_ID": "58819",
    "ELEMENT_SET_NO": "999",
    "REV_AT_EPOCH": "443",
    "BSTAR": "0.01084900000000",
    "MEAN_MOTION_DOT": "0.00038760",
    "MEAN_MOTION_DDOT": "0.0000000000000",
    "SEMIMAJOR_AXIS": "7117.427",
    "PERIOD": "99.597",
    "APOAPSIS": "746.687",
    "PERIAPSIS": "731.896",
    "OBJECT_TYPE": "DEBRIS",
    "RCS_SIZE": null,
    "COUNTRY_CODE": "IRAN",
    "LAUNCH_DATE": "2024-01-20",
    "SITE": "SMTS",
    "DECAY_DATE": null,
    "FILE": "4195143",
    "GP_ID": "249841170",
    "TLE_LINE0": "0 QAEM 100 DEB",
    "TLE_LINE1": "1 58819U 24015C   24051.18999307  .00038760  00000-0  10849-1 0  9998",
    "TLE_LINE2": "2 58819  64.4832  22.5250 0010391 319.5265  40.5048 14.45833459  4439"
  },
  {
    "CCSDS_OMM_VERS": "3.0",
    "COMMENT": "GENERATED VIA SPACE-TRACK.ORG API",
    "CREATION_DATE": "2024-01-18T16:26:16",
    "ORIGINATOR": "18 SPCS",
    "OBJECT_NAME": "CZ-7 DEB",
    "OBJECT_ID": "2024-013D",
    "CENTER_NAME": "EARTH",
    "REF_FRAME": "TEME",
    "TIME_SYSTEM": "UTC",
    "MEAN_ELEMENT_THEORY": "SGP4",
    "EPOCH": "2024-01-18T02:44:48.187104",
    "MEAN_MOTION": "15.72861586",
    "ECCENTRICITY": "0.02403060",
    "INCLINATION": "41.6413",
    "RA_OF_ASC_NODE": "286.0086",
    "ARG_OF_PERICENTER": "187.1577",
    "MEAN_ANOMALY": "323.2676",
    "EPHEMERIS_TYPE": "0",
    "CLASSIFICATION_TYPE": "U",
    "NORAD_CAT_ID": "58814",
    "ELEMENT_SET_NO": "999",
    "REV_AT_EPOCH": "8",
    "BSTAR": "0.00000000000000",
    "MEAN_MOTION_DOT": "-0.00002240",
    "MEAN_MOTION_DDOT": "0.0000070950000",
    "SEMIMAJOR_AXIS": "6728.860",
    "PERIOD": "91.553",
    "APOAPSIS": "512.424",
    "PERIAPSIS": "189.027",
    "OBJECT_TYPE": "DEBRIS",
    "RCS_SIZE": null,
    "COUNTRY_CODE": null,
    "LAUNCH_DATE": null,
    "SITE": null,
    "DECAY_DATE": null,
    "FILE": "4165272",
    "GP_ID": "247248236",
    "TLE_LINE0": "0 CZ-7 DEB",
    "TLE_LINE1": "1 58814U 24013D   24018.11444661 -.00002240  70950-5  00000+0 0  9992",
    "TLE_LINE2": "2 58814  41.6413 286.0086 0240306 187.1577 323.2676 15.72861586    84"
  },
  {
    "CCSDS_OMM_VERS": "3.0",
    "COMMENT": "GENERATED VIA SPACE-TRACK.ORG API",
    "CREATION_DATE": "2024-01-18T16:26:16",
    "ORIGINATOR": "18 SPCS",
    "OBJECT_NAME": "CZ-7 DEB",
    "OBJECT_ID": "2024-013C",
    "CENTER_NAME": "EARTH",
    "REF_FRAME": "TEME",
    "TIME_SYSTEM": "UTC",
    "MEAN_ELEMENT_THEORY": "SGP4",
    "EPOCH": "2024-01-18T02:44:11.395392",
    "MEAN_MOTION": "15.73710950",
    "ECCENTRICITY": "0.02340140",
    "INCLINATION": "41.8298",
    "RA_OF_ASC_NODE": "285.9373",
    "ARG_OF_PERICENTER": "181.6233",
    "MEAN_ANOMALY": "328.2070",
    "EPHEMERIS_TYPE": "0",
    "CLASSIFICATION_TYPE": "U",
    "NORAD_CAT_ID": "58813",
    "ELEMENT_SET_NO": "999",
    "REV_AT_EPOCH": "9",
    "BSTAR": "0.00000000000000",
    "MEAN_MOTION_DOT": "-0.00002294",
    "MEAN_MOTION_DDOT": "0.0000072670000",
    "SEMIMAJOR_AXIS": "6726.439",
    "PERIOD": "91.503",
    "APOAPSIS": "505.712",
    "PERIAPSIS": "190.896",
    "OBJECT_TYPE": "DEBRIS",
    "RCS_SIZE": null,
    "COUNTRY_CODE": null,
    "LAUNCH_DATE": null,
    "SITE": null,
    "DECAY_DATE": null,
    "FILE": "4165271",
    "GP_ID": "247248237",
    "TLE_LINE0": "0 CZ-7 DEB",
    "TLE_LINE1": "1 58813U 24013C   24018.11402078 -.00002294  72670-5  00000+0 0  9997",
    "TLE_LINE2": "2 58813  41.8298 285.9373 0234014 181.6233 328.2070 15.73710950    93"
  }
]